[
    {
        "Altitude(m)": 556367.4257447965,
        "Argument of Periapsis(deg)": 0.0,
        "Eccentricity": 0.0,
        "Inclination(deg)": 53.0,
        "Latitude(deg)": 37.24579212586399,
        "Longitude(deg)": 4.766369166666716,
        "Mean Anomaly(deg)": 49.09089999999999,
        "RAAN(deg)": 70.0,
        "Satellite Name": "Starlink Shell 1 311",
        "Satellite Number": 311,
        "Semi-Major Axis(m)": 6931778.249405717,
        "Time(s)": 0
    },
    {
        "Altitude(m)": 556450.8117419089,
        "Argument of Periapsis(deg)": 0.00034857847951123687,
        "Eccentricity": 0.0,
        "Inclination(deg)": 53.0,
        "Latitude(deg)": 37.657017862120796,
        "Longitude(deg)": 5.321293898184356,
        "Mean Anomaly(deg)": 49.7177312035567,
        "RAAN(deg)": 69.99948122992251,
        "Satellite Name": "Starlink Shell 1 311",
        "Satellite Number": 311,
        "Semi-Major Axis(m)": 6931778.249405717,
        "Time(s)": 10
    },
    {
        "Altitude(m)": 556534.2841822068,
        "Argument of Periapsis(deg)": 0.0006971569590224737,
        "Eccentricity": 0.0,
        "Inclination(deg)": 53.0,
        "Latitude(deg)": 38.06516821540592,
        "Longitude(deg)": 5.882800004041744,
        "Mean Anomaly(deg)": 50.34456240711343,
        "RAAN(deg)": 69.99896245984506,
        "Satellite Name": "Starlink Shell 1 311",
        "Satellite Number": 311,
        "Semi-Major Axis(m)": 6931778.249405717,
        "Time(s)": 20
    },
    {
        "Altitude(m)": 556617.7879063619,
        "Argument of Periapsis(deg)": 0.0010457354385337105,
        "Eccentricity": 0.0,
        "Inclination(deg)": 53.0,
        "Latitude(deg)": 38.47016449069671,
        "Longitude(deg)": 6.451007752860328,
        "Mean Anomaly(deg)": 50.971393610670155,
        "RAAN(deg)": 69.99844368976757,
        "Satellite Name": "Starlink Shell 1 311",
        "Satellite Number": 311,
        "Semi-Major Axis(m)": 6931778.249405717,
        "Time(s)": 30
    },
    {
        "Altitude(m)": 556701.2679494055,
        "Argument of Periapsis(deg)": 0.0013943139180449475,
        "Eccentricity": 0.0,
        "Inclination(deg)": 53.0,
        "Latitude(deg)": 38.87192624559804,
        "Longitude(deg)": 7.026037774504061,
        "Mean Anomaly(deg)": 51.59822481422687,
        "RAAN(deg)": 69.99792491969009,
        "Satellite Name": "Starlink Shell 1 311",
        "Satellite Number": 311,
        "Semi-Major Axis(m)": 6931778.249405717,
        "Time(s)": 40
    },
    {
        "Altitude(m)": 556784.6695687703,
        "Argument of Periapsis(deg)": 0.0017428923975561844,
        "Eccentricity": 0.0,
        "Inclination(deg)": 53.0,
        "Latitude(deg)": 39.270371267312775,
        "Longitude(deg)": 7.608009876754036,
        "Mean Anomaly(deg)": 52.225056017783565,
        "RAAN(deg)": 69.99740614961263,
        "Satellite Name": "Starlink Shell 1 311",
        "Satellite Number": 311,
        "Semi-Major Axis(m)": 6931778.249405717,
        "Time(s)": 50
    },
    {
        "Altitude(m)": 556867.9382722112,
        "Argument of Periapsis(deg)": 0.002091470877067421,
        "Eccentricity": 0.0,
        "Inclination(deg)": 53.0,
        "Latitude(deg)": 39.66541555159251,
        "Longitude(deg)": 8.19704336093189,
        "Mean Anomaly(deg)": 52.85188722134027,
        "RAAN(deg)": 69.99688737953515,
        "Satellite Name": "Starlink Shell 1 311",
        "Satellite Number": 311,
        "Semi-Major Axis(m)": 6931778.249405717,
        "Time(s)": 60
    },
    {
        "Altitude(m)": 556951.0198455486,
        "Argument of Periapsis(deg)": 0.0024400493565786582,
        "Eccentricity": 0.0,
        "Inclination(deg)": 53.0,
        "Latitude(deg)": 40.05697328390975,
        "Longitude(deg)": 8.793257322991195,
        "Mean Anomaly(deg)": 53.478718424896975,
        "RAAN(deg)": 69.99636860945768,
        "Satellite Name": "Starlink Shell 1 311",
        "Satellite Number": 311,
        "Semi-Major Axis(m)": 6931778.249405717,
        "Time(s)": 70
    },
    {
        "Altitude(m)": 557033.8603802328,
        "Argument of Periapsis(deg)": 0.002788627836089895,
        "Eccentricity": 0.0,
        "Inclination(deg)": 53.0,
        "Latitude(deg)": 40.44495682310595,
        "Longitude(deg)": 9.396769426606092,
        "Mean Anomaly(deg)": 54.10554962845373,
        "RAAN(deg)": 69.99584983938021,
        "Satellite Name": "Starlink Shell 1 311",
        "Satellite Number": 311,
        "Semi-Major Axis(m)": 6931778.249405717,
        "Time(s)": 80
    },
    {
        "Altitude(m)": 557116.406300704,
        "Argument of Periapsis(deg)": 0.0031372063156011316,
        "Eccentricity": 0.0,
        "Inclination(deg)": 53.0,
        "Latitude(deg)": 40.82927668779558,
        "Longitude(deg)": 10.00769617342534,
        "Mean Anomaly(deg)": 54.732380832010435,
        "RAAN(deg)": 69.99533106930274,
        "Satellite Name": "Starlink Shell 1 311",
        "Satellite Number": 311,
        "Semi-Major Axis(m)": 6931778.249405717,
        "Time(s)": 90
    },
    {
        "Altitude(m)": 557198.6043915635,
        "Argument of Periapsis(deg)": 0.0034857847951123688,
        "Eccentricity": 0.0,
        "Inclination(deg)": 53.0,
        "Latitude(deg)": 41.209841545813624,
        "Longitude(deg)": 10.626153157065577,
        "Mean Anomaly(deg)": 55.35921203556714,
        "RAAN(deg)": 69.99481229922526,
        "Satellite Name": "Starlink Shell 1 311",
        "Satellite Number": 311,
        "Semi-Major Axis(m)": 6931778.249405717,
        "Time(s)": 100
    },
    {
        "Altitude(m)": 557280.4018245083,
        "Argument of Periapsis(deg)": 0.003834363274623606,
        "Eccentricity": 0.0,
        "Inclination(deg)": 53.0,
        "Latitude(deg)": 41.586558207010086,
        "Longitude(deg)": 11.25225378744716,
        "Mean Anomaly(deg)": 55.98604323912386,
        "RAAN(deg)": 69.9942935291478,
        "Satellite Name": "Starlink Shell 1 311",
        "Satellite Number": 311,
        "Semi-Major Axis(m)": 6931778.249405717,
        "Time(s)": 110
    },
    {
        "Altitude(m)": 557361.7461850676,
        "Argument of Periapsis(deg)": 0.004182941754134842,
        "Eccentricity": 0.0,
        "Inclination(deg)": 53.0,
        "Latitude(deg)": 41.959331619719144,
        "Longitude(deg)": 11.886109510741212,
        "Mean Anomaly(deg)": 56.61287444268057,
        "RAAN(deg)": 69.99377475907032,
        "Satellite Name": "Starlink Shell 1 311",
        "Satellite Number": 311,
        "Semi-Major Axis(m)": 6931778.249405717,
        "Time(s)": 120
    },
    {
        "Altitude(m)": 557442.5854990504,
        "Argument of Periapsis(deg)": 0.004531520233646079,
        "Eccentricity": 0.0,
        "Inclination(deg)": 53.0,
        "Latitude(deg)": 42.32806487123845,
        "Longitude(deg)": 12.527830011624053,
        "Mean Anomaly(deg)": 57.239705646237304,
        "RAAN(deg)": 69.99325598899284,
        "Satellite Name": "Starlink Shell 1 311",
        "Satellite Number": 311,
        "Semi-Major Axis(m)": 6931778.249405717,
        "Time(s)": 130
    },
    {
        "Altitude(m)": 557522.8682587632,
        "Argument of Periapsis(deg)": 0.0048800987131573164,
        "Eccentricity": 0.0,
        "Inclination(deg)": 53.0,
        "Latitude(deg)": 42.69265919266931,
        "Longitude(deg)": 13.177521884597244,
        "Mean Anomaly(deg)": 57.866536849794,
        "RAAN(deg)": 69.99273721891538,
        "Satellite Name": "Starlink Shell 1 311",
        "Satellite Number": 311,
        "Semi-Major Axis(m)": 6931778.249405717,
        "Time(s)": 140
    },
    {
        "Altitude(m)": 557602.5434489761,
        "Argument of Periapsis(deg)": 0.005228677192668553,
        "Eccentricity": 0.0,
        "Inclination(deg)": 53.0,
        "Latitude(deg)": 43.05301396849055,
        "Longitude(deg)": 13.835288799823594,
        "Mean Anomaly(deg)": 58.493368053350714,
        "RAAN(deg)": 69.9922184488379,
        "Satellite Name": "Starlink Shell 1 311",
        "Satellite Number": 311,
        "Semi-Major Axis(m)": 6931778.249405717,
        "Time(s)": 150
    },
    {
        "Altitude(m)": 557681.5605725633,
        "Argument of Periapsis(deg)": 0.00557725567217979,
        "Eccentricity": 0.0,
        "Inclination(deg)": 53.0,
        "Latitude(deg)": 43.40902675124534,
        "Longitude(deg)": 14.501231650393866,
        "Mean Anomaly(deg)": 59.12019925690742,
        "RAAN(deg)": 69.99169967876043,
        "Satellite Name": "Starlink Shell 1 311",
        "Satellite Number": 311,
        "Semi-Major Axis(m)": 6931778.249405717,
        "Time(s)": 160
    },
    {
        "Altitude(m)": 557759.8696759032,
        "Argument of Periapsis(deg)": 0.0059258341516910265,
        "Eccentricity": 0.0,
        "Inclination(deg)": 53.0,
        "Latitude(deg)": 43.7605932817323,
        "Longitude(deg)": 15.175447168035237,
        "Mean Anomaly(deg)": 59.74703046046414,
        "RAAN(deg)": 69.99118090868296,
        "Satellite Name": "Starlink Shell 1 311",
        "Satellite Number": 311,
        "Semi-Major Axis(m)": 6931778.249405717,
        "Time(s)": 170
    },
    {
        "Altitude(m)": 557837.421373933,
        "Argument of Periapsis(deg)": 0.006274412631202263,
        "Eccentricity": 0.0,
        "Inclination(deg)": 53.0,
        "Latitude(deg)": 44.10760751511119,
        "Longitude(deg)": 15.85802803300499,
        "Mean Anomaly(deg)": 60.3738616640209,
        "RAAN(deg)": 69.99066213860549,
        "Satellite Name": "Starlink Shell 1 311",
        "Satellite Number": 311,
        "Semi-Major Axis(m)": 6931778.249405717,
        "Time(s)": 180
    }
]